NORAD_CAT_ID,OBJECT_NAME,OBJECT_TYPE,EPOCH,MEAN_MOTION,ECCENTRICITY,INCLINATION,RA_OF_ASC_NODE,ARG_OF_PERICENTER,MEAN_ANOMALY,BSTAR,MEAN_MOTION_DOT,MEAN_MOTION_DDOT,TLE_LINE0,TLE_LINE1,TLE_LINE2,SEMIMAJOR_AXIS,PERIOD,APOGEE,PERIGEE,DECAYED
55959.0,STARLINK-5929,PAYLOAD,2023-03-22 18:00:00,15.95233069,0.0039188,69.9998,167.7437,162.558,301.8673,-0.0022903,-0.00974425,0.00029779,0 STARLINK-5929,1 55959U 23037AX  23081.75001157 -.00974425  29779-3 -22903-2 0  9996,2 55959  69.9998 167.7437 0039188 162.5580 301.8673 15.95233069  1301,6665.802,90.269,313.789,261.545,0.0
55959.0,STARLINK-5929,PAYLOAD,2023-03-22 22:00:00,15.94940206,0.0036573,69.9996,167.2574,162.4614,178.7016,-0.0025169,-0.01042435,0.00033627,0 STARLINK-5929,1 55959U 23037AX  23081.91667824 -.01042435  33627-3 -25169-2 0  9995,2 55959  69.9996 167.2574 0036573 162.4614 178.7016 15.94940206  1307,6666.618,90.286,312.865,264.101,0.0
55959.0,STARLINK-5929,PAYLOAD,2023-03-23 06:00:00,15.94256721,0.0034014,70.0003,166.2853,163.5511,290.5352,-0.0024741,-0.00978613,0.00029712,0 STARLINK-5929,1 55959U 23037AX  23082.25001157 -.00978613  29712-3 -24741-2 0  9994,2 55959  70.0003 166.2853 0034014 163.5511 290.5352 15.94256721  1379,6668.523,90.324,313.071,267.706,0.0
55959.0,STARLINK-5929,PAYLOAD,2023-03-23 14:00:01,15.93608449,0.0029772,69.9999,165.3146,164.4101,41.8713,-0.002623,-0.00988369,0.0003006,0 STARLINK-5929,1 55959U 23037AX  23082.58335648 -.00988369  30060-3 -26230-2 0  9997,2 55959  69.9999 165.3146 0029772 164.4101  41.8713 15.93608449  1303,6670.332,90.361,312.056,272.338,0.0
55959.0,STARLINK-5929,PAYLOAD,2023-03-24 17:00:11,15.91398555,0.0017999,69.9999,162.0439,174.1374,0.4069,-0.0029764,-0.00972055,0.00028505,0 STARLINK-5929,1 55959U 23037AX  23083.70846065 -.00972055  28505-3 -29764-2 0  9993,2 55959  69.9999 162.0439 0017999 174.1374   0.4069 15.91398555  1600,6676.505,90.486,310.387,286.353,0.0
55959.0,STARLINK-5929,PAYLOAD,2023-03-24 22:00:01,15.91033235,0.0015439,69.9997,161.4395,178.2467,108.7191,-0.0033055,-0.01054584,0.00033021,0 STARLINK-5929,1 55959U 23037AX  23083.91668981 -.01054584  33021-3 -33055-2 0  9991,2 55959  69.9997 161.4395 0015439 178.2467 108.7191 15.91033235  1303,6677.527,90.507,309.702,289.083,0.0
55959.0,STARLINK-5929,PAYLOAD,2023-03-25 06:00:00,15.90365662,0.0012385,70.0002,160.4734,188.0639,207.0599,-0.003337,-0.01025203,0.00031134,0 STARLINK-5929,1 55959U 23037AX  23084.25001157 -.01025203  31134-3 -33370-2 0  9994,2 55959  70.0002 160.4734 0012385 188.0639 207.0599 15.90365662  1694,6679.396,90.545,309.533,292.988,0.0
55959.0,STARLINK-5929,PAYLOAD,2023-03-25 14:00:01,15.89690174,0.0010371,70.0002,159.5083,197.8358,304.7328,-0.0033044,-0.00979395,0.00028421,0 STARLINK-5929,1 55959U 23037AX  23084.58334491 -.00979395  28421-3 -33044-2 0  9992,2 55959  70.0002 159.5083 0010371 197.8358 304.7328 15.89690174  1747,6681.288,90.584,310.082,296.224,0.0
55959.0,STARLINK-5929,PAYLOAD,2023-03-25 22:00:00,15.89062499,0.0008606,69.9997,158.5431,216.8577,32.3562,-0.0035879,-0.01028554,0.00030928,0 STARLINK-5929,1 55959U 23037AX  23084.91667824 -.01028554  30928-3 -35879-2 0  9994,2 55959  69.9997 158.5431 0008606 216.8577  32.3562 15.89062499  1798,6683.047,90.619,310.664,299.161,0.0
55959.0,STARLINK-5929,PAYLOAD,2023-03-26 06:00:00,15.88415134,0.0008447,69.9995,157.5797,239.8298,115.254,-0.0037441,-0.01039081,0.0003132,0 STARLINK-5929,1 55959U 23037AX  23085.25001157 -.01039081  31320-3 -37441-2 0  9994,2 55959  69.9995 157.5797 0008447 239.8298 115.2540 15.88415134  1859,6684.863,90.656,312.374,301.081,0.0
55959.0,STARLINK-5929,PAYLOAD,2023-03-26 22:00:01,15.87087303,0.0009054,69.9998,155.6557,267.4638,297.0918,-0.0038267,-0.0090492,0.0,0 STARLINK-5929,1 55959U 23037AX  23085.91668981 -.00904920  00000-0 -38267-2 0  9998,2 55959  69.9998 155.6557 0009054 267.4638 297.0918 15.87087303  1956,6688.591,90.732,316.512,304.4,0.0
55959.0,STARLINK-5929,PAYLOAD,2023-03-27 14:00:01,15.85802626,0.0007056,69.9998,153.7349,271.7586,138.9896,-0.0042245,-0.00932993,0.0,0 STARLINK-5929,1 55959U 23037AX  23086.58334491 -.00932993  00000-0 -42245-2 0  9990,2 55959  69.9998 153.7349 0007056 271.7586 138.9896 15.85802626  1302,6692.203,90.806,318.79,309.346,0.0
55959.0,STARLINK-5929,PAYLOAD,2023-03-27 22:00:00,15.85140876,0.0003828,70.0001,152.7759,275.2591,237.4528,-0.0042905,-0.00916864,0.0,0 STARLINK-5929,1 55959U 23037AX  23086.91667824 -.00916864  00000-0 -42905-2 0  9998,2 55959  70.0001 152.7759 0003828 275.2591 237.4528 15.85140876  1301,6694.065,90.844,318.493,313.368,0.0
55959.0,STARLINK-5929,PAYLOAD,2023-03-28 14:00:01,15.83830631,0.0003686,70.0002,150.8609,269.1852,85.1033,-0.0045222,-0.00908224,0.0,0 STARLINK-5929,1 55959U 23037AX  23087.58334491 -.00908224  00000-0 -45222-2 0  9999,2 55959  70.0002 150.8609 0003686 269.1852  85.1033 15.83830631  1301,6697.756,90.919,322.09,317.153,0.0
55959.0,STARLINK-5929,PAYLOAD,2023-03-28 22:00:00,15.83195946,0.0003724,69.9998,149.9043,279.5786,174.3156,-0.0048004,-0.00932785,0.0,0 STARLINK-5929,1 55959U 23037AX  23087.91667824 -.00932785  00000-0 -48004-2 0  9995,2 55959  69.9998 149.9043 0003724 279.5786 174.3156 15.83195946  1307,6699.546,90.955,323.906,318.916,0.0
55959.0,STARLINK-5929,PAYLOAD,2023-03-29 02:00:01,15.82851644,0.0003681,70.0002,149.427,276.0448,47.3708,-0.0047345,-0.00907722,0.0,0 STARLINK-5929,1 55959U 23037AX  23088.08334491 -.00907722  00000-0 -47345-2 0  9995,2 55959  70.0002 149.4270 0003681 276.0448  47.3708 15.82851644  2308,6700.518,90.975,324.849,319.916,0.0
55959.0,STARLINK-5929,PAYLOAD,2023-03-29 14:00:01,15.81873794,0.0003598,70.0003,147.995,270.0953,20.6865,-0.0049544,-0.00907213,0.0,0 STARLINK-5929,1 55959U 23037AX  23088.58334491 -.00907213  00000-0 -49544-2 0  9998,2 55959  70.0003 147.9950 0003598 270.0953  20.6865 15.81873794  1305,6703.279,91.031,327.556,322.732,0.0
55959.0,STARLINK-5929,PAYLOAD,2023-03-29 22:00:00,15.81221027,0.0003645,69.9999,147.0412,269.3917,118.6572,-0.0051059,-0.00906981,0.0,0 STARLINK-5929,1 55959U 23037AX  23088.91667824 -.00906981  00000-0 -51059-2 0  9999,2 55959  69.9999 147.0412 0003645 269.3917 118.6572 15.81221027  1303,6705.124,91.069,329.433,324.545,0.0
55959.0,STARLINK-5929,PAYLOAD,2023-03-30 00:00:00,15.81054458,0.0003531,69.9998,146.8036,268.7113,233.5333,-0.00511,-0.00901257,0.0,0 STARLINK-5929,1 55959U 23037AX  23089.00001157 -.00901257  00000-0 -51100-2 0  9999,2 55959  69.9998 146.8036 0003531 268.7113 233.5333 15.81054458  2446,6705.595,91.078,329.827,325.092,0.0
55959.0,STARLINK-5929,PAYLOAD,2023-03-30 22:00:00,15.79263487,0.0003626,70.0002,144.1866,271.6835,43.4722,-0.0055828,-0.00906327,0.0,0 STARLINK-5929,1 55959U 23037AX  23089.91667824 -.00906327  00000-0 -55828-2 0  9992,2 55959  70.0002 144.1866 0003626 271.6835  43.4722 15.79263487  2593,6710.663,91.182,334.962,330.095,0.0
55959.0,STARLINK-5929,PAYLOAD,2023-03-31 22:00:00,15.77319341,0.0003599,70.0001,141.3402,281.8309,313.3846,-0.0062232,-0.00923496,0.0,0 STARLINK-5929,1 55959U 23037AX  23090.91667824 -.00923496  00000-0 -62232-2 0  9997,2 55959  70.0001 141.3402 0003599 281.8309 313.3846 15.77319341  2747,6716.176,91.294,340.458,335.624,0.0
55959.0,STARLINK-5929,PAYLOAD,2023-04-01 14:00:01,15.75998325,0.0003638,69.9999,139.447,276.4713,141.5498,-0.0064012,-0.00898456,0.0,0 STARLINK-5929,1 55959U 23037AX  23091.58334491 -.00898456  00000-0 -64012-2 0  9997,2 55959  69.9999 139.4470 0003638 276.4713 141.5498 15.75998325  1304,6719.929,91.371,344.239,339.349,0.0
55959.0,STARLINK-5929,PAYLOAD,2023-04-01 22:00:00,15.75349167,0.0003607,70.0002,138.5017,284.0138,224.2318,-0.0066208,-0.00902632,0.0,0 STARLINK-5929,1 55959U 23037AX  23091.91667824 -.00902632  00000-0 -66208-2 0  9994,2 55959  70.0002 138.5017 0003607 284.0138 224.2318 15.75349167  1305,6721.775,91.408,346.064,341.215,0.0
55959.0,STARLINK-5929,PAYLOAD,2023-04-02 08:00:01,15.74535849,0.0003756,70.0003,137.3216,282.7718,67.1556,-0.0068918,-0.00906418,0.0,0 STARLINK-5929,1 55959U 23037AX  23092.33334491 -.00906418  00000-0 -68918-2 0  9998,2 55959  70.0003 137.3216 0003756 282.7718  67.1556 15.74535849  2973,6724.089,91.456,348.48,343.429,0.0
55959.0,STARLINK-5929,PAYLOAD,2023-04-02 14:00:01,15.74044774,0.0003635,70.0001,136.6144,274.6711,51.6794,-0.0070029,-0.00902002,0.0,0 STARLINK-5929,1 55959U 23037AX  23092.58334491 -.00902002  00000-0 -70029-2 0  9996,2 55959  70.0001 136.6144 0003635 274.6711  51.6794 15.74044774  1302,6725.488,91.484,349.797,344.908,0.0
55959.0,STARLINK-5929,PAYLOAD,2023-04-02 22:00:00,15.73387417,0.000378,70.0003,135.6718,285.4149,128.8171,-0.0071427,-0.00895059,0.0,0 STARLINK-5929,1 55959U 23037AX  23092.91667824 -.00895059  00000-0 -71427-2 0  9998,2 55959  70.0003 135.6718 0003780 285.4149 128.8171 15.73387417  1305,6727.361,91.522,351.769,346.683,0.0
55959.0,STARLINK-5929,PAYLOAD,2023-04-03 06:00:00,15.7274051,0.0003582,70.0002,134.7302,283.9182,217.4087,-0.0074197,-0.00903285,0.0,0 STARLINK-5929,1 55959U 23037AX  23093.25001157 -.00903285  00000-0 -74197-2 0  9995,2 55959  70.0002 134.7302 0003582 283.9182 217.4087 15.72740510  3111,6729.206,91.56,353.481,348.66,0.0
55959.0,STARLINK-5929,PAYLOAD,2023-04-03 14:00:01,15.72086046,0.0003484,70.0,133.7898,277.1662,310.4758,-0.0075902,-0.00898993,0.0,0 STARLINK-5929,1 55959U 23037AX  23093.58334491 -.00898993  00000-0 -75902-2 0  9995,2 55959  70.0000 133.7898 0003484 277.1662 310.4758 15.72086046  1302,6731.073,91.598,355.283,350.593,0.0
55959.0,STARLINK-5929,PAYLOAD,2023-04-03 22:00:00,15.71399298,0.000321,69.9949,132.8423,267.7355,45.4419,-0.0072061,-0.008353,0.0,0 STARLINK-5929,1 55959U 23037AX  23093.91667824 -.00835300  00000-0 -72061-2 0  9997,2 55959  69.9949 132.8423 0003210 267.7355  45.4419 15.71399298  3223,6733.034,91.638,357.06,352.738,0.0
